{"type": "FeatureCollection", "features": [ {"type": "Feature", "properties": {"norad_id": 66435, "name": "STARLINK-35502", "group": "last-30-days", "lat": 22.627035207118443, "lon": 129.1170999844439, "alt_km": 411.8737518735106, "timestamp": "2025-12-03T06:58:42.031829+00:00", "meta": {"OBJECT_NAME": "STARLINK-35502", "OBJECT_ID": "2025-259P", "EPOCH": "2025-12-02T20:00:03.000384", "MEAN_MOTION": 15.50578712, "ECCENTRICITY": 0.0001522, "INCLINATION": 42.9999, "RA_OF_ASC_NODE": 105.2227, "ARG_OF_PERICENTER": 269.5022, "MEAN_ANOMALY": 88.589, "EPHEMERIS_TYPE": 0, "CLASSIFICATION_TYPE": "U", "NORAD_CAT_ID": 66435, "ELEMENT_SET_NO": 999, "REV_AT_EPOCH": 468, "BSTAR": 0.00078405, "MEAN_MOTION_DOT": 0.00045924, "MEAN_MOTION_DDOT": 0}, "tle": {"line1": "1 66435U 25259P   25336.83336806  .00045924  00000+0  78405-3 0  9993", "line2": "2 66435  42.9999 105.2227 0001522 269.5022  88.5890 15.50578712  4680"}}, "geometry": {"type": "Point", "coordinates": [129.1170999844439, 22.627035207118443]}}, {"type": "Feature", "properties": {"norad_id": 66436, "name": "STARLINK-35501", "group": "last-30-days", "lat": 24.914742787980476, "lon": 132.43486814503765, "alt_km": 411.5316363253987, "timestamp": "2025-12-03T06:58:42.031839+00:00", "meta": {"OBJECT_NAME": "STARLINK-35501", "OBJECT_ID": "2025-259Q", "EPOCH": "2025-12-02T20:00:03.000384", "MEAN_MOTION": 15.50543964, "ECCENTRICITY": 0.0001495, "INCLINATION": 43, "RA_OF_ASC_NODE": 105.2122, "ARG_OF_PERICENTER": 268.5276, "MEAN_ANOMALY": 93.3901, "EPHEMERIS_TYPE": 0, "CLASSIFICATION_TYPE": "U", "NORAD_CAT_ID": 66436, "ELEMENT_SET_NO": 999, "REV_AT_EPOCH": 468, "BSTAR": 0.0016321, "MEAN_MOTION_DOT": 0.00096472, "MEAN_MOTION_DDOT": 0}, "tle": {"line1": "1 66436U 25259Q   25336.83336806  .00096472  00000+0  16321-2 0  9996", "line2": "2 66436  43.0000 105.2122 0001495 268.5276  93.3901 15.50543964  4687"}}, "geometry": {"type": "Point", "coordinates": [132.43486814503765, 24.914742787980476]}}, {"type": "Feature", "properties": {"norad_id": 66437, "name": "STARLINK-35474", "group": "last-30-days", "lat": 26.029769654992865, "lon": 134.1380108062335, "alt_km": 411.4068505807163, "timestamp": "2025-12-03T06:58:42.031849+00:00", "meta": {"OBJECT_NAME": "STARLINK-35474", "OBJECT_ID": "2025-259R", "EPOCH": "2025-12-02T20:00:03.000384", "MEAN_MOTION": 15.50555803, "ECCENTRICITY": 0.0001485, "INCLINATION": 42.9999, "RA_OF_ASC_NODE": 105.2067, "ARG_OF_PERICENTER": 270.3637, "MEAN_ANOMALY": 93.4618, "EPHEMERIS_TYPE": 0, "CLASSIFICATION_TYPE": "U", "NORAD_CAT_ID": 66437, "ELEMENT_SET_NO": 999, "REV_AT_EPOCH": 468, "BSTAR": 0.0010481, "MEAN_MOTION_DOT": 0.00061578, "MEAN_MOTION_DDOT": 0}, "tle": {"line1": "1 66437U 25259R   25336.83336806  .00061578  00000+0  10481-2 0  9997", "line2": "2 66437  42.9999 105.2067 0001485 270.3637  93.4618 15.50555803  4683"}}, "geometry": {"type": "Point", "coordinates": [134.1380108062335, 26.029769654992865]}}, {"type": "Feature", "properties": {"norad_id": 66438, "name": "STARLINK-34681", "group": "last-30-days", "lat": 27.13969279625766, "lon": 135.89968807371014, "alt_km": 411.20776757132535, "timestamp": "2025-12-03T06:58:42.031867+00:00", "meta": {"OBJECT_NAME": "STARLINK-34681", "OBJECT_ID": "2025-259S", "EPOCH": "2025-12-02T20:00:03.000384", "MEAN_MOTION": 15.50539448, "ECCENTRICITY": 0.0001498, "INCLINATION": 43, "RA_OF_ASC_NODE": 105.2026, "ARG_OF_PERICENTER": 267.598, "MEAN_ANOMALY": 98.1457, "EPHEMERIS_TYPE": 0, "CLASSIFICATION_TYPE": "U", "NORAD_CAT_ID": 66438, "ELEMENT_SET_NO": 999, "REV_AT_EPOCH": 457, "BSTAR": 0.0019025, "MEAN_MOTION_DOT": 0.00112733, "MEAN_MOTION_DDOT": 0}, "tle": {"line1": "1 66438U 25259S   25336.83336806  .00112733  00000+0  19025-2 0  9991", "line2": "2 66438  43.0000 105.2026 0001498 267.5980  98.1457 15.50539448  4575"}}, "geometry": {"type": "Point", "coordinates": [135.89968807371014, 27.13969279625766]}}, {"type": "Feature", "properties": {"norad_id": 66439, "name": "STARLINK-35327", "group": "last-30-days", "lat": 23.790651940886935, "lon": 130.7785029439576, "alt_km": 411.64533556755123, "timestamp": "2025-12-03T06:58:42.031878+00:00", "meta": {"OBJECT_NAME": "STARLINK-35327", "OBJECT_ID": "2025-259T", "EPOCH": "2025-12-02T20:00:03.000384", "MEAN_MOTION": 15.50572547, "ECCENTRICITY": 0.0001378, "INCLINATION": 43, "RA_OF_ASC_NODE": 105.2189, "ARG_OF_PERICENTER": 269.7161, "MEAN_ANOMALY": 90.2991, "EPHEMERIS_TYPE": 0, "CLASSIFICATION_TYPE": "U", "NORAD_CAT_ID": 66439, "ELEMENT_SET_NO": 999, "REV_AT_EPOCH": 468, "BSTAR": 0.00097932, "MEAN_MOTION_DOT": 0.0005752, "MEAN_MOTION_DDOT": 0}, "tle": {"line1": "1 66439U 25259T   25336.83336806  .00057520  00000+0  97932-3 0  9998", "line2": "2 66439  43.0000 105.2189 0001378 269.7161  90.2991 15.50572547  4683"}}, "geometry": {"type": "Point", "coordinates": [130.7785029439576, 23.790651940886935]}}, {"type": "Feature", "properties": {"norad_id": 66440, "name": "STARLINK-35405", "group": "last-30-days", "lat": 28.227032963182676, "lon": 137.69756451977304, "alt_km": 411.16263288572554, "timestamp": "2025-12-03T06:58:42.031887+00:00", "meta": {"OBJECT_NAME": "STARLINK-35405", "OBJECT_ID": "2025-259U", "EPOCH": "2025-12-02T20:00:03.000384", "MEAN_MOTION": 15.50596472, "ECCENTRICITY": 0.0001497, "INCLINATION": 42.9997, "RA_OF_ASC_NODE": 105.1992, "ARG_OF_PERICENTER": 269.3916, "MEAN_ANOMALY": 98.2683, "EPHEMERIS_TYPE": 0, "CLASSIFICATION_TYPE": "U", "NORAD_CAT_ID": 66440, "ELEMENT_SET_NO": 999, "REV_AT_EPOCH": 468, "BSTAR": 4.8409e-05, "MEAN_MOTION_DOT": 2.501e-05, "MEAN_MOTION_DDOT": 0}, "tle": {"line1": "1 66440U 25259U   25336.83336806  .00002501  00000+0  48409-4 0  9995", "line2": "2 66440  42.9997 105.1992 0001497 269.3916  98.2683 15.50596472  4684"}}, "geometry": {"type": "Point", "coordinates": [137.69756451977304, 28.227032963182676]}}, {"type": "Feature", "properties": {"norad_id": 66441, "name": "STARLINK-35426", "group": "last-30-days", "lat": 29.27442847093718, "lon": 139.49991768423018, "alt_km": 410.955513043099, "timestamp": "2025-12-03T06:58:42.031897+00:00", "meta": {"OBJECT_NAME": "STARLINK-35426", "OBJECT_ID": "2025-259V", "EPOCH": "2025-12-02T20:00:03.000384", "MEAN_MOTION": 15.50558462, "ECCENTRICITY": 0.0001397, "INCLINATION": 43, "RA_OF_ASC_NODE": 105.1924, "ARG_OF_PERICENTER": 267.5095, "MEAN_ANOMALY": 102.0723, "EPHEMERIS_TYPE": 0, "CLASSIFICATION_TYPE": "U", "NORAD_CAT_ID": 66441, "ELEMENT_SET_NO": 999, "REV_AT_EPOCH": 468, "BSTAR": 0.00097878, "MEAN_MOTION_DOT": 0.00057459, "MEAN_MOTION_DDOT": 0}, "tle": {"line1": "1 66441U 25259V   25336.83336806  .00057459  00000+0  97878-3 0  9991", "line2": "2 66441  43.0000 105.1924 0001397 267.5095 102.0723 15.50558462  4680"}}, "geometry": {"type": "Point", "coordinates": [139.49991768423018, 29.27442847093718]}}, {"type": "Feature", "properties": {"norad_id": 66442, "name": "STARLINK-34724", "group": "last-30-days", "lat": 30.343744273649122, "lon": 141.42964848062502, "alt_km": 410.98756808769576, "timestamp": "2025-12-03T06:58:42.031907+00:00", "meta": {"OBJECT_NAME": "STARLINK-34724", "OBJECT_ID": "2025-259W", "EPOCH": "2025-12-02T20:00:03.000384", "MEAN_MOTION": 15.50539063, "ECCENTRICITY": 0.0001837, "INCLINATION": 43, "RA_OF_ASC_NODE": 105.1889, "ARG_OF_PERICENTER": 278.6393, "MEAN_ANOMALY": 92.9796, "EPHEMERIS_TYPE": 0, "CLASSIFICATION_TYPE": "U", "NORAD_CAT_ID": 66442, "ELEMENT_SET_NO": 999, "REV_AT_EPOCH": 468, "BSTAR": 0.00044001, "MEAN_MOTION_DOT": 0.00025519, "MEAN_MOTION_DDOT": 0}, "tle": {"line1": "1 66442U 25259W   25336.83336806  .00025519  00000+0  44001-3 0  9994", "line2": "2 66442  43.0000 105.1889 0001837 278.6393  92.9796 15.50539063  4687"}}, "geometry": {"type": "Point", "coordinates": [141.42964848062502, 30.343744273649122]}}, {"type": "Feature", "properties": {"norad_id": 66443, "name": "STARLINK-35219", "group": "last-30-days", "lat": 31.34782444835448, "lon": 143.32973279265295, "alt_km": 410.8864730682526, "timestamp": "2025-12-03T06:58:42.031917+00:00", "meta": {"OBJECT_NAME": "STARLINK-35219", "OBJECT_ID": "2025-259X", "EPOCH": "2025-12-02T20:00:03.000384", "MEAN_MOTION": 15.50569362, "ECCENTRICITY": 0.0001773, "INCLINATION": 43.0001, "RA_OF_ASC_NODE": 105.1844, "ARG_OF_PERICENTER": 276.4723, "MEAN_ANOMALY": 97.0448, "EPHEMERIS_TYPE": 0, "CLASSIFICATION_TYPE": "U", "NORAD_CAT_ID": 66443, "ELEMENT_SET_NO": 999, "REV_AT_EPOCH": 458, "BSTAR": -0.00024026, "MEAN_MOTION_DOT": -0.00014406, "MEAN_MOTION_DDOT": 0}, "tle": {"line1": "1 66443U 25259X   25336.83336806 -.00014406  00000+0 -24026-3 0  9995", "line2": "2 66443  43.0001 105.1844 0001773 276.4723  97.0448 15.50569362  4586"}}, "geometry": {"type": "Point", "coordinates": [143.32973279265295, 31.34782444835448]}}, {"type": "Feature", "properties": {"norad_id": 66444, "name": "STARLINK-35360", "group": "last-30-days", "lat": 34.1493362405187, "lon": 149.2047694867115, "alt_km": 410.35148866705094, "timestamp": "2025-12-03T06:58:42.031927+00:00", "meta": {"OBJECT_NAME": "STARLINK-35360", "OBJECT_ID": "2025-259Y", "EPOCH": "2025-12-02T20:00:03.000384", "MEAN_MOTION": 15.50548863, "ECCENTRICITY": 0.0001581, "INCLINATION": 43.0001, "RA_OF_ASC_NODE": 105.1691, "ARG_OF_PERICENTER": 261.5299, "MEAN_ANOMALY": 117.6277, "EPHEMERIS_TYPE": 0, "CLASSIFICATION_TYPE": "U", "NORAD_CAT_ID": 66444, "ELEMENT_SET_NO": 999, "REV_AT_EPOCH": 468, "BSTAR": 0.0016439, "MEAN_MOTION_DOT": 0.000972, "MEAN_MOTION_DDOT": 0}, "tle": {"line1": "1 66444U 25259Y   25336.83336806  .00097200  00000+0  16439-2 0  9995", "line2": "2 66444  43.0001 105.1691 0001581 261.5299 117.6277 15.50548863  4680"}}, "geometry": {"type": "Point", "coordinates": [149.2047694867115, 34.1493362405187]}}]}